0 COSMOS 676
1 07433U 74071A   13282.76046584  .00000096  00000-0  45137-4 0  8125
2 07433 074.0472 276.8325 0013665 187.2043 227.2871 14.32141686 39560
0 COSMOS 676
1 07433U 74071A   13284.08454025  .00000112  00000-0  51180-4 0  8130
2 07433 074.0472 274.4184 0013615 184.4164 213.8811 14.32142315 39751
0 COSMOS 676
1 07433U 74071A   13286.18899691  .00000092  00000-0  43898-4 0  8151
2 07433 074.0474 270.5815 0013546 180.0867 263.8330 14.32142889 40058
0 COSMOS 676
1 07433U 74071A   13287.45930642  .00000086  00000-0  41649-4 0  8160
2 07433 074.0476 268.2654 0013473 177.3232 333.3214 14.32143369 40237
0 COSMOS 676
1 07433U 74071A   13288.49970755  .00000128  00000-0  57032-4 0  8175
2 07433 074.0478 266.3685 0013422 175.0348 297.4716 14.32143804 40386
0 COSMOS 676
1 07433U 74071A   13289.61919078  .00000130  00000-0  57763-4 0  8186
2 07433 074.0481 264.3274 0013372 172.6205 309.3122 14.32143991 40540
0 COSMOS 676
1 07433U 74071A   13291.14900013  .00000146  00000-0  63755-4 0  8192
2 07433 074.0484 261.5384 0013323 169.4233 276.6137 14.32144271 40763
0 COSMOS 676
1 07433U 74071A   13292.19924035  .00000152  00000-0  65860-4 0  8206
2 07433 074.0485 259.6238 0013291 167.2912 291.3179 14.32144522 40910
0 COSMOS 676
1 07433U 74071A   13293.46391730  .00000161  00000-0  69526-4 0  8211
2 07433 074.0485 257.3182 0013243 164.5745 331.7409 14.32145072 41090
0 COSMOS 676
1 07433U 74071A   13294.51304854  .00000174  00000-0  74310-4 0  8221
2 07433 074.0486 255.4058 0013201 162.3004 340.8759 14.32145486 41245
0 COSMOS 676
1 07433U 74071A   13295.88653194  .00000189  00000-0  79914-4 0  8238
2 07433 074.0486 252.9020 0013157 159.1487 222.4879 14.32146086 41442
